IRIDIUM 33 DEB          
1 34765U 97051LJ  26062.29462484  .00001782  00000+0  55103-3 0  9996
2 34765  86.3440 358.1926 0015137 320.5112 191.6812 14.40731769887730
IRIDIUM 33 DEB          
1 34833U 97051MH  26062.35838759  .00004233  00000+0  10191-2 0  9992
2 34833  86.3965  16.2246 0018858 179.0486 309.6105 14.52991289888857
IRIDIUM 33 DEB          
1 34870U 97051MQ  26061.88326943  .00009814  00000+0  13451-2 0  9999
2 34870  86.3060 277.3223 0014730 275.7378 144.8425 14.78283800900948
IRIDIUM 33 DEB          
1 34896U 97051MY  26061.94884556  .00004677  00000+0  82332-3 0  9990
2 34896  86.3266 290.6953 0024343 307.1937 116.6925 14.67216364887950
IRIDIUM 33 DEB          
1 34926U 97051NF  26062.69239692  .00032888  00000+0  67100-2 0  9992
2 34926  86.1331 330.6151 0080367  20.3710   7.6762 14.58731100876351
IRIDIUM 33 DEB          
1 34985U 97051NR  26062.84940360  .00003536  00000+0  10607-2 0  9993
2 34985  86.3723  22.2545 0020150 323.4939  65.6321 14.42432725883445
IRIDIUM 33 DEB          
1 35051U 97051NX  26062.19624420  .00002674  00000+0  71394-3 0  9995
2 35051  86.3285 333.7982 0007886 165.3511 194.7923 14.48072669881609
IRIDIUM 33 DEB          
1 35052U 97051NY  26062.75572411  .00000774  00000+0  24623-3 0  9992
2 35052  86.3362 345.7545 0011545 166.6024 193.5483 14.38619205884405
IRIDIUM 33 DEB          
1 35080U 97051PF  26061.84822801  .00127949  00000+0  94357-2 0  9997
2 35080  86.2064  13.6867 0029851 245.5617 114.2502 15.02330738708833
IRIDIUM 33 DEB          
1 35297U 97051PM  26062.66907184  .00003100  00000+0  87194-3 0  9990
2 35297  86.3861  28.1932 0013455 231.0302 128.9703 14.45579710715954
IRIDIUM 33 DEB          
1 35299U 97051PP  26062.78186556  .00005068  00000+0  15252-2 0  9997
2 35299  86.2921 357.8885 0053593 193.0673 196.3209 14.41619591874983
IRIDIUM 33 DEB          
1 35480U 97051QA  26061.23131842  .00002995  00000+0  76407-3 0  9992
2 35480  86.3616 350.4456 0012511 190.4902 169.6043 14.50243832881833
IRIDIUM 33 DEB          
1 35484U 97051QE  26050.19184175  .00037506  00000+0  25740-2 0  9995
2 35484  86.3587 320.5585 0011587 239.1626 120.8470 15.05777687630433
IRIDIUM 33 DEB          
1 35488U 97051QJ  26062.51874171  .00011918  00000+0  13785-2 0  9995
2 35488  86.3193 263.5650 0027379 111.4775 248.9373 14.85176500894645
IRIDIUM 33 DEB          
1 35616U 97051QN  26062.00372993  .00013776  00000+0  16284-2 0  9998
2 35616  86.3536 309.0606 0006782 263.3407  96.7045 14.84547006887649
IRIDIUM 33 DEB          
1 35618U 97051QQ  26060.98682220  .00001776  00000+0  42564-3 0  9990
2 35618  86.3424 318.8529 0030481 109.2412 251.2096 14.52702392665448
