[{"OBJECT_NAME":"IRIDIUM 33 DEB","OBJECT_ID":"1997-051LJ","EPOCH":"2026-03-03T07:04:15.586176","MEAN_MOTION":14.40731769,"ECCENTRICITY":0.00151377,"INCLINATION":86.344,"RA_OF_ASC_NODE":358.1926,"ARG_OF_PERICENTER":320.5112,"MEAN_ANOMALY":191.6812,"EPHEMERIS_TYPE":0,"CLASSIFICATION_TYPE":"U","NORAD_CAT_ID":34765,"ELEMENT_SET_NO":999,"REV_AT_EPOCH":88773,"BSTAR":0.00055102749,"MEAN_MOTION_DOT":1.782e-5,"MEAN_MOTION_DDOT":0},{"OBJECT_NAME":"IRIDIUM 33 DEB","OBJECT_ID":"1997-051MH","EPOCH":"2026-03-03T08:36:04.687776","MEAN_MOTION":14.52991289,"ECCENTRICITY":0.00188587,"INCLINATION":86.3965,"RA_OF_ASC_NODE":16.2246,"ARG_OF_PERICENTER":179.0486,"MEAN_ANOMALY":309.6105,"EPHEMERIS_TYPE":0,"CLASSIFICATION_TYPE":"U","NORAD_CAT_ID":34833,"ELEMENT_SET_NO":999,"REV_AT_EPOCH":88885,"BSTAR":0.0010190707,"MEAN_MOTION_DOT":4.233e-5,"MEAN_MOTION_DDOT":0},{"OBJECT_NAME":"IRIDIUM 33 DEB","OBJECT_ID":"1997-051MQ","EPOCH":"2026-03-02T21:11:54.478752","MEAN_MOTION":14.782838,"ECCENTRICITY":0.001473,"INCLINATION":86.306,"RA_OF_ASC_NODE":277.3223,"ARG_OF_PERICENTER":275.7378,"MEAN_ANOMALY":144.8425,"EPHEMERIS_TYPE":0,"CLASSIFICATION_TYPE":"U","NORAD_CAT_ID":34870,"ELEMENT_SET_NO":999,"REV_AT_EPOCH":90094,"BSTAR":0.0013451,"MEAN_MOTION_DOT":9.814e-5,"MEAN_MOTION_DDOT":0},{"OBJECT_NAME":"IRIDIUM 33 DEB","OBJECT_ID":"1997-051MY","EPOCH":"2026-03-02T22:46:20.256384","MEAN_MOTION":14.67216364,"ECCENTRICITY":0.0024343,"INCLINATION":86.3266,"RA_OF_ASC_NODE":290.6953,"ARG_OF_PERICENTER":307.1937,"MEAN_ANOMALY":116.6925,"EPHEMERIS_TYPE":0,"CLASSIFICATION_TYPE":"U","NORAD_CAT_ID":34896,"ELEMENT_SET_NO":999,"REV_AT_EPOCH":88795,"BSTAR":0.00082332,"MEAN_MOTION_DOT":4.677e-5,"MEAN_MOTION_DDOT":0},{"OBJECT_NAME":"IRIDIUM 33 DEB","OBJECT_ID":"1997-051NF","EPOCH":"2026-03-03T16:37:03.093888","MEAN_MOTION":14.587311,"ECCENTRICITY":0.0080367,"INCLINATION":86.1331,"RA_OF_ASC_NODE":330.6151,"ARG_OF_PERICENTER":20.371,"MEAN_ANOMALY":7.6762,"EPHEMERIS_TYPE":0,"CLASSIFICATION_TYPE":"U","NORAD_CAT_ID":34926,"ELEMENT_SET_NO":999,"REV_AT_EPOCH":87635,"BSTAR":0.00671,"MEAN_MOTION_DOT":0.00032888,"MEAN_MOTION_DDOT":0},{"OBJECT_NAME":"IRIDIUM 33 DEB","OBJECT_ID":"1997-051NR","EPOCH":"2026-03-03T20:23:08.471040","MEAN_MOTION":14.42432725,"ECCENTRICITY":0.002015,"INCLINATION":86.3723,"RA_OF_ASC_NODE":22.2545,"ARG_OF_PERICENTER":323.4939,"MEAN_ANOMALY":65.6321,"EPHEMERIS_TYPE":0,"CLASSIFICATION_TYPE":"U","NORAD_CAT_ID":34985,"ELEMENT_SET_NO":999,"REV_AT_EPOCH":88344,"BSTAR":0.0010607,"MEAN_MOTION_DOT":3.536e-5,"MEAN_MOTION_DDOT":0},{"OBJECT_NAME":"IRIDIUM 33 DEB","OBJECT_ID":"1997-051NX","EPOCH":"2026-03-03T04:42:35.498880","MEAN_MOTION":14.48072669,"ECCENTRICITY":0.0007886,"INCLINATION":86.3285,"RA_OF_ASC_NODE":333.7982,"ARG_OF_PERICENTER":165.3511,"MEAN_ANOMALY":194.7923,"EPHEMERIS_TYPE":0,"CLASSIFICATION_TYPE":"U","NORAD_CAT_ID":35051,"ELEMENT_SET_NO":999,"REV_AT_EPOCH":88160,"BSTAR":0.00071393968,"MEAN_MOTION_DOT":2.674e-5,"MEAN_MOTION_DDOT":0},{"OBJECT_NAME":"IRIDIUM 33 DEB","OBJECT_ID":"1997-051NY","EPOCH":"2026-03-03T18:08:14.563104","MEAN_MOTION":14.38619205,"ECCENTRICITY":0.0011545,"INCLINATION":86.3362,"RA_OF_ASC_NODE":345.7545,"ARG_OF_PERICENTER":166.6024,"MEAN_ANOMALY":193.5483,"EPHEMERIS_TYPE":0,"CLASSIFICATION_TYPE":"U","NORAD_CAT_ID":35052,"ELEMENT_SET_NO":999,"REV_AT_EPOCH":88440,"BSTAR":0.00024623,"MEAN_MOTION_DOT":7.74e-6,"MEAN_MOTION_DDOT":0},{"OBJECT_NAME":"IRIDIUM 33 DEB","OBJECT_ID":"1997-051PF","EPOCH":"2026-03-02T20:21:26.900064","MEAN_MOTION":15.02330738,"ECCENTRICITY":0.0029851,"INCLINATION":86.2064,"RA_OF_ASC_NODE":13.6867,"ARG_OF_PERICENTER":245.5617,"MEAN_ANOMALY":114.2502,"EPHEMERIS_TYPE":0,"CLASSIFICATION_TYPE":"U","NORAD_CAT_ID":35080,"ELEMENT_SET_NO":999,"REV_AT_EPOCH":70883,"BSTAR":0.009435726,"MEAN_MOTION_DOT":0.00127949,"MEAN_MOTION_DDOT":0},{"OBJECT_NAME":"IRIDIUM 33 DEB","OBJECT_ID":"1997-051PM","EPOCH":"2026-03-03T16:03:27.806976","MEAN_MOTION":14.4557971,"ECCENTRICITY":0.0013455,"INCLINATION":86.3861,"RA_OF_ASC_NODE":28.1932,"ARG_OF_PERICENTER":231.0302,"MEAN_ANOMALY":128.9703,"EPHEMERIS_TYPE":0,"CLASSIFICATION_TYPE":"U","NORAD_CAT_ID":35297,"ELEMENT_SET_NO":999,"REV_AT_EPOCH":71595,"BSTAR":0.00087194,"MEAN_MOTION_DOT":3.1e-5,"MEAN_MOTION_DDOT":0},{"OBJECT_NAME":"IRIDIUM 33 DEB","OBJECT_ID":"1997-051PP","EPOCH":"2026-03-03T18:45:53.184384","MEAN_MOTION":14.41619591,"ECCENTRICITY":0.0053593,"INCLINATION":86.2921,"RA_OF_ASC_NODE":357.8885,"ARG_OF_PERICENTER":193.0673,"MEAN_ANOMALY":196.3209,"EPHEMERIS_TYPE":0,"CLASSIFICATION_TYPE":"U","NORAD_CAT_ID":35299,"ELEMENT_SET_NO":999,"REV_AT_EPOCH":87498,"BSTAR":0.0015252,"MEAN_MOTION_DOT":5.068e-5,"MEAN_MOTION_DDOT":0},{"OBJECT_NAME":"IRIDIUM 33 DEB","OBJECT_ID":"1997-051QA","EPOCH":"2026-03-02T05:33:05.911488","MEAN_MOTION":14.50243832,"ECCENTRICITY":0.00125112,"INCLINATION":86.3616,"RA_OF_ASC_NODE":350.4456,"ARG_OF_PERICENTER":190.4902,"MEAN_ANOMALY":169.6043,"EPHEMERIS_TYPE":0,"CLASSIFICATION_TYPE":"U","NORAD_CAT_ID":35480,"ELEMENT_SET_NO":999,"REV_AT_EPOCH":88183,"BSTAR":0.00076407362,"MEAN_MOTION_DOT":2.995e-5,"MEAN_MOTION_DDOT":0},{"OBJECT_NAME":"IRIDIUM 33 DEB","OBJECT_ID":"1997-051QE","EPOCH":"2026-02-19T04:36:15.127200","MEAN_MOTION":15.05777687,"ECCENTRICITY":0.0011587,"INCLINATION":86.3587,"RA_OF_ASC_NODE":320.5585,"ARG_OF_PERICENTER":239.1626,"MEAN_ANOMALY":120.847,"EPHEMERIS_TYPE":0,"CLASSIFICATION_TYPE":"U","NORAD_CAT_ID":35484,"ELEMENT_SET_NO":999,"REV_AT_EPOCH":63043,"BSTAR":0.002574,"MEAN_MOTION_DOT":0.00037506,"MEAN_MOTION_DDOT":0},{"OBJECT_NAME":"IRIDIUM 33 DEB","OBJECT_ID":"1997-051QJ","EPOCH":"2026-03-03T12:26:59.283744","MEAN_MOTION":14.851765,"ECCENTRICITY":0.00273795,"INCLINATION":86.3193,"RA_OF_ASC_NODE":263.565,"ARG_OF_PERICENTER":111.4775,"MEAN_ANOMALY":248.9373,"EPHEMERIS_TYPE":0,"CLASSIFICATION_TYPE":"U","NORAD_CAT_ID":35488,"ELEMENT_SET_NO":999,"REV_AT_EPOCH":89464,"BSTAR":0.0013784923,"MEAN_MOTION_DOT":0.00011918,"MEAN_MOTION_DDOT":0},{"OBJECT_NAME":"IRIDIUM 33 DEB","OBJECT_ID":"1997-051QN","EPOCH":"2026-03-03T00:05:22.265952","MEAN_MOTION":14.84547006,"ECCENTRICITY":0.00067821,"INCLINATION":86.3536,"RA_OF_ASC_NODE":309.0606,"ARG_OF_PERICENTER":263.3407,"MEAN_ANOMALY":96.7045,"EPHEMERIS_TYPE":0,"CLASSIFICATION_TYPE":"U","NORAD_CAT_ID":35616,"ELEMENT_SET_NO":999,"REV_AT_EPOCH":88764,"BSTAR":0.0016284093,"MEAN_MOTION_DOT":0.00013776,"MEAN_MOTION_DDOT":0},{"OBJECT_NAME":"IRIDIUM 33 DEB","OBJECT_ID":"1997-051QQ","EPOCH":"2026-03-01T23:41:01.438080","MEAN_MOTION":14.52702392,"ECCENTRICITY":0.0030481,"INCLINATION":86.3424,"RA_OF_ASC_NODE":318.8529,"ARG_OF_PERICENTER":109.2412,"MEAN_ANOMALY":251.2096,"EPHEMERIS_TYPE":0,"CLASSIFICATION_TYPE":"U","NORAD_CAT_ID":35618,"ELEMENT_SET_NO":999,"REV_AT_EPOCH":66544,"BSTAR":0.00042564,"MEAN_MOTION_DOT":1.776e-5,"MEAN_MOTION_DDOT":0}]
